NORAD_CAT_ID,OBJECT_NAME,OBJECT_TYPE,EPOCH,MEAN_MOTION,ECCENTRICITY,INCLINATION,RA_OF_ASC_NODE,ARG_OF_PERICENTER,MEAN_ANOMALY,BSTAR,MEAN_MOTION_DOT,MEAN_MOTION_DDOT,TLE_LINE0,TLE_LINE1,TLE_LINE2,SEMIMAJOR_AXIS,PERIOD,APOGEE,PERIGEE,DECAYED
56475.0,STARLINK-5541,PAYLOAD,2023-06-04 15:03:54,15.69933314,0.0003541,69.9981,175.2806,262.9781,97.1012,2.8256e-05,3.187e-05,0.0,0 STARLINK-5541,1 56475U 23064AD  23155.62771071  .00003187  00000-0  28256-4 0  9995,2 56475  69.9981 175.2806 0003541 262.9781  97.1012 15.69933314  4286,6737.225,91.724,361.475,356.704,0.0
56475.0,STARLINK-5541,PAYLOAD,2023-06-05 03:17:55,15.69929795,0.0002491,69.9996,173.8496,281.9828,78.1089,2.9175e-05,3.297e-05,0.0,0 STARLINK-5541,1 56475U 23064AD  23156.13744966  .00003297  00000-0  29175-4 0  9998,2 56475  69.9996 173.8496 0002491 281.9828  78.1089 15.69929795  4367,6737.235,91.724,360.778,357.422,0.0
56475.0,STARLINK-5541,PAYLOAD,2023-06-05 09:24:56,15.69923632,0.0003115,69.9989,173.1319,267.6672,92.4167,6.8186e-06,6.07e-06,0.0,0 STARLINK-5541,1 56475U 23064AD  23156.39231716  .00000607  00000-0  68186-5 0  9998,2 56475  69.9989 173.1319 0003115 267.6672  92.4167 15.69923632  4403,6737.252,91.724,361.216,357.019,0.0
56475.0,STARLINK-5541,PAYLOAD,2023-06-05 12:28:26,15.69921015,0.0003429,69.9967,172.7723,265.2729,94.8075,2.1126e-06,4.1e-07,0.0,0 STARLINK-5541,1 56475U 23064AD  23156.51975398  .00000041  00000-0  21126-5 0  9998,2 56475  69.9967 172.7723 0003429 265.2729  94.8075 15.69921015  4078,6737.26,91.724,361.435,356.815,0.0
56475.0,STARLINK-5541,PAYLOAD,2023-06-05 18:35:27,15.69922298,0.0003566,69.997,172.0561,260.8088,99.2705,5.1877e-06,4.11e-06,0.0,0 STARLINK-5541,1 56475U 23064AD  23156.77461888  .00000411  00000-0  51877-5 0  9997,2 56475  69.9970 172.0561 0003566 260.8088  99.2705 15.69922298  4114,6737.256,91.724,361.524,356.719,0.0
56475.0,STARLINK-5541,PAYLOAD,2023-06-06 11:24:43,15.69926714,0.0003439,69.9991,170.0871,260.8014,99.2793,1.7302e-05,1.868e-05,0.0,0 STARLINK-5541,1 56475U 23064AD  23157.47549973  .00001868  00000-0  17302-4 0  9998,2 56475  69.9991 170.0871 0003439 260.8014  99.2793 15.69926714  4223,6737.244,91.724,361.426,356.792,0.0
56475.0,STARLINK-5541,PAYLOAD,2023-06-06 12:56:28,15.69926884,0.0003555,69.9983,169.9072,262.1911,97.8882,1.3246e-05,1.38e-05,0.0,0 STARLINK-5541,1 56475U 23064AD  23157.53921629  .00001380  00000-0  13246-4 0  9999,2 56475  69.9983 169.9072 0003555 262.1911  97.8882 15.69926884  4584,6737.243,91.724,361.503,356.713,0.0
56475.0,STARLINK-5541,PAYLOAD,2023-06-07 13:24:30,15.69921579,0.0003589,69.9984,167.0412,264.7356,95.3431,9.3743e-06,9.14e-06,0.0,0 STARLINK-5541,1 56475U 23064AD  23158.55868653  .00000914  00000-0  93743-5 0  9992,2 56475  69.9984 167.0412 0003589 264.7356  95.3431 15.69921579  4398,6737.258,91.724,361.541,356.705,0.0
56475.0,STARLINK-5541,PAYLOAD,2023-06-07 17:59:45,15.6992306,0.0003405,69.9985,166.5031,269.1595,90.921,1.765e-05,1.91e-05,0.0,0 STARLINK-5541,1 56475U 23064AD  23158.74983685  .00001910  00000-0  17650-4 0  9995,2 56475  69.9985 166.5031 0003405 269.1595  90.9210 15.69923060  4776,6737.254,91.724,361.413,356.825,0.0
56475.0,STARLINK-5541,PAYLOAD,2023-06-08 01:38:30,15.69935709,0.0003452,69.9986,165.6078,268.0761,92.0039,-7.8347e-06,-1.155e-05,0.0,0 STARLINK-5541,1 56475U 23064AD  23159.06841305 -.00001155  00000-0 -78347-5 0  9997,2 56475  69.9986 165.6078 0003452 268.0761  92.0039 15.69935709  4824,6737.218,91.724,361.409,356.757,0.0
56475.0,STARLINK-5541,PAYLOAD,2023-06-08 09:17:16,15.69928917,0.0003728,69.9977,164.7119,267.8864,92.1905,-2.4896e-07,-2.43e-06,0.0,0 STARLINK-5541,1 56475U 23064AD  23159.38699937 -.00000243  00000-0 -24896-6 0  9992,2 56475  69.9977 164.7119 0003728 267.8864  92.1905 15.69928917  4878,6737.237,91.724,361.614,356.591,0.0
56475.0,STARLINK-5541,PAYLOAD,2023-06-09 09:45:18,15.69927229,0.0003793,69.9962,161.845,267.8994,92.1768,1.0586e-05,1.06e-05,0.0,0 STARLINK-5541,1 56475U 23064AD  23160.40646877  .00001060  00000-0  10586-4 0  9997,2 56475  69.9962 161.8450 0003793 267.8994  92.1768 15.69927229  5035,6737.242,91.724,361.663,356.552,0.0
56475.0,STARLINK-5541,PAYLOAD,2023-06-10 10:13:20,15.69936426,0.0003328,69.9963,158.9772,263.0029,97.0788,8.4024e-06,7.98e-06,0.0,0 STARLINK-5541,1 56475U 23064AD  23161.42593114  .00000798  00000-0  84024-5 0  9991,2 56475  69.9963 158.9772 0003328 263.0029  97.0788 15.69936426  5193,6737.216,91.723,361.323,356.839,0.0
56475.0,STARLINK-5541,PAYLOAD,2023-06-10 11:45:05,15.69936406,0.0003601,69.9958,158.7968,265.6531,94.4253,3.9705e-06,2.65e-06,0.0,0 STARLINK-5541,1 56475U 23064AD  23161.48964810  .00000265  00000-0  39705-5 0  9997,2 56475  69.9958 158.7968 0003601 265.6531  94.4253 15.69936406  4850,6737.216,91.723,361.507,356.655,0.0
56475.0,STARLINK-5541,PAYLOAD,2023-06-11 06:06:07,15.69926886,0.0003761,69.9961,156.6499,265.3527,94.7239,1.2055e-05,1.237e-05,0.0,0 STARLINK-5541,1 56475U 23064AD  23162.25425434  .00001237  00000-0  12055-4 0  9995,2 56475  69.9961 156.6499 0003761 265.3527  94.7239 15.69926886  5320,6737.243,91.724,361.642,356.574,0.0
56475.0,STARLINK-5541,PAYLOAD,2023-06-11 12:13:08,15.69927327,0.000375,69.997,155.9341,264.8262,95.2506,1.1105e-05,1.123e-05,0.0,0 STARLINK-5541,1 56475U 23064AD  23162.50912172  .00001123  00000-0  11105-4 0  9992,2 56475  69.9970 155.9341 0003750 264.8262  95.2506 15.69927327  5016,6737.242,91.724,361.633,356.58,0.0
56475.0,STARLINK-5541,PAYLOAD,2023-06-12 01:58:54,15.69928704,0.0003464,69.9982,154.3212,263.9268,96.1533,5.4945e-06,4.48e-06,0.0,0 STARLINK-5541,1 56475U 23064AD  23163.08257101  .00000448  00000-0  54945-5 0  9999,2 56475  69.9982 154.3212 0003464 263.9268  96.1533 15.69928704  5107,6737.238,91.724,361.437,356.769,0.0
56475.0,STARLINK-5541,PAYLOAD,2023-06-12 08:05:54,15.69933371,0.000345,69.9978,153.6041,264.4763,95.6039,1.4357e-05,1.514e-05,0.0,0 STARLINK-5541,1 56475U 23064AD  23163.33743526  .00001514  00000-0  14357-4 0  9995,2 56475  69.9978 153.6041 0003450 264.4763  95.6039 15.69933371  5498,6737.225,91.724,361.414,356.765,0.0
56475.0,STARLINK-5541,PAYLOAD,2023-06-12 09:37:40,15.69924122,0.000304,69.9975,153.4239,271.5074,88.5774,-1.1531e-06,-3.51e-06,0.0,0 STARLINK-5541,1 56475U 23064AD  23163.40115769 -.00000351  00000-0 -11531-5 0  9997,2 56475  69.9975 153.4239 0003040 271.5074  88.5774 15.69924122  5155,6737.251,91.724,361.164,357.068,0.0
56475.0,STARLINK-5541,PAYLOAD,2023-06-12 23:23:26,15.69919815,0.0003781,69.9975,151.8118,261.7081,98.3686,5.4847e-06,4.46e-06,0.0,0 STARLINK-5541,1 56475U 23064AD  23163.97460931  .00000446  00000-0  54847-5 0  9993,2 56475  69.9975 151.8118 0003781 261.7081  98.3686 15.69919815  5596,6737.263,91.724,361.676,356.581,0.0
56475.0,STARLINK-5541,PAYLOAD,2023-06-13 05:30:26,15.69929662,0.0003416,69.9973,151.0944,259.5591,100.522,1.5619e-05,1.666e-05,0.0,0 STARLINK-5541,1 56475U 23064AD  23164.22947144  .00001666  00000-0  15619-4 0  9996,2 56475  69.9973 151.0944 0003416 259.5591 100.5220 15.69929662  5635,6737.235,91.724,361.402,356.799,0.0
56475.0,STARLINK-5541,PAYLOAD,2023-06-13 07:02:11,15.69933583,0.0003569,69.9983,150.9187,266.1891,93.8897,2.0625e-05,2.269e-05,0.0,0 STARLINK-5541,1 56475U 23064AD  23164.29318753  .00002269  00000-0  20625-4 0  9994,2 56475  69.9983 150.9187 0003569 266.1891  93.8897 15.69933583  5292,6737.224,91.724,361.494,356.685,0.0
56475.0,STARLINK-5541,PAYLOAD,2023-06-13 22:19:43,15.69925021,0.0003464,69.9983,149.1286,266.7326,93.3473,1.2097e-05,1.242e-05,0.0,0 STARLINK-5541,1 56475U 23064AD  23164.93035919  .00001242  00000-0  12097-4 0  9999,2 56475  69.9983 149.1286 0003464 266.7326  93.3473 15.69925021  5748,6737.249,91.724,361.447,356.78,0.0
56475.0,STARLINK-5541,PAYLOAD,2023-06-14 10:33:44,15.69923919,0.0003423,69.9989,147.6948,265.4553,94.6252,3.4003e-06,1.96e-06,0.0,0 STARLINK-5541,1 56475U 23064AD  23165.44009366  .00000196  00000-0  34003-5 0  9992,2 56475  69.9989 147.6948 0003423 265.4553  94.6252 15.69923919  5478,6737.252,91.724,361.423,356.811,0.0
56475.0,STARLINK-5541,PAYLOAD,2023-06-15 07:58:15,15.69921122,0.0003246,69.998,145.1865,266.9356,93.1468,-2.5078e-06,-5.14e-06,0.0,0 STARLINK-5541,1 56475U 23064AD  23166.33212790 -.00000514  00000-0 -25078-5 0  9996,2 56475  69.9980 145.1865 0003246 266.9356  93.1468 15.69921122  5961,6737.26,91.724,361.312,356.938,0.0
56475.0,STARLINK-5541,PAYLOAD,2023-06-15 11:01:46,15.69918883,0.0003238,69.9978,144.8285,270.211,89.8714,-7.93e-06,-1.166e-05,0.0,0 STARLINK-5541,1 56475U 23064AD  23166.45956336 -.00001166  00000-0 -79300-5 0  9991,2 56475  69.9978 144.8285 0003238 270.2110  89.8714 15.69918883  5637,6737.266,91.724,361.313,356.95,0.0
56475.0,STARLINK-5541,PAYLOAD,2023-06-15 15:37:01,15.69927879,0.0003929,70.0,144.2905,264.2493,95.8254,1.7881e-05,1.938e-05,0.0,0 STARLINK-5541,1 56475U 23064AD  23166.65070636  .00001938  00000-0  17881-4 0  9993,2 56475  70.0000 144.2905 0003929 264.2493  95.8254 15.69927879  5667,6737.24,91.724,361.752,356.458,0.0
56475.0,STARLINK-5541,PAYLOAD,2023-06-16 00:47:31,15.69931552,0.0002986,69.9997,143.2143,263.9078,96.1778,1.7923e-05,1.944e-05,0.0,0 STARLINK-5541,1 56475U 23064AD  23167.03300865  .00001944  00000-0  17923-4 0  9990,2 56475  69.9997 143.2143 0002986 263.9078  96.1778 15.69931552  6073,6737.23,91.724,361.107,357.083,0.0
56475.0,STARLINK-5541,PAYLOAD,2023-06-16 09:58:03,15.69920049,0.000289,70.0005,142.1373,280.7131,79.3739,1.8809e-06,1.4e-07,0.0,0 STARLINK-5541,1 56475U 23064AD  23167.41531476  .00000014  00000-0  18809-5 0  9998,2 56475  70.0005 142.1373 0002890 280.7131  79.3739 15.69920049  6136,6737.263,91.724,361.075,357.181,0.0
56475.0,STARLINK-5541,PAYLOAD,2023-06-16 16:05:03,15.69924753,0.0003342,69.9967,141.4246,272.5475,87.5338,6.1319e-06,5.25e-06,0.0,0 STARLINK-5541,1 56475U 23064AD  23167.67017729  .00000525  00000-0  61319-5 0  9997,2 56475  69.9967 141.4246 0003342 272.5475  87.5338 15.69924753  5821,6737.249,91.724,361.366,356.863,0.0
